CZ-2D R/B               
1 28738U 05024B   26121.28553367  .00064775  00000+0  65975-3 0  9993
2 28738  97.3529 138.5409 0005491 157.1847 202.9658 15.64910125147993
ALOS (DAICHI)           
1 28931U 06002A   26120.85127744  .00001213  00000+0  21088-3 0  9998
2 28931  98.1294  76.5797 0002012  99.3442 260.7992 14.69951272 81140
H-2A R/B                
1 28932U 06002B   26120.98245376  .00009253  00000+0  44972-3 0  9994
2 28932  98.2504 272.5804 0052187  64.4254 296.2358 15.17474092102367
RESURS-DK 1             
1 29228U 06021A   26121.29709906  .00002969  00000+0  17377-3 0  9999
2 29228  69.9318 100.9122 0003821 334.0462  26.0511 15.13017367 95487
CZ-4B R/B               
1 29507U 06046C   26121.10893011  .00005065  00000+0  25299-3 0  9999
2 29507  97.5495 165.8650 0034552  86.3633 274.1551 15.17403860 67994
CZ-2C R/B               
1 31114U 07010B   26121.28173357  .00000131  00000+0  78735-4 0  9994
2 31114  98.4043 231.9399 0059831 140.5008 220.0553 14.20264211987183
COSMO-SKYMED 1          
1 31598U 07023A   26121.27858517  .00004406  00000+0  38923-3 0  9994
2 31598  97.8866 312.7445 0001829  96.0548 264.0882 14.96876821 22770
COSMOS 2428             
1 31792U 07029A   26121.27698871 -.00000201  00000+0 -82298-4 0  9997
2 31792  70.9394  92.9621 0008807 217.5616 142.4891 14.12943899971529
SL-16 R/B               
1 31793U 07029B   26121.32746226  .00000293  00000+0  17667-3 0  9998
2 31793  70.9763  61.7325 0002539 268.2455 261.5536 14.14848410972812
KORONAS-FOTON           
1 33504U 09003A   26121.25821348  .00017459  00000+0  37218-3 0  9991
2 33504  82.4319 221.1689 0009356 330.4411  29.6307 15.44729694953850
CZ-2C R/B               
1 37731U 11030B   26121.31870700  .00001159  00000+0  15177-3 0  9993
2 37731  97.8624  77.5657 0052374 177.4725 341.7700 14.81368325797882
H-2A R/B                
1 38341U 12025E   26120.92262481  .00002968  00000+0  26903-3 0  9991
2 38341  98.4794  92.1929 0045177 140.5061 219.9465 14.95464951756029
SHIJIAN-16 (SJ-16)      
1 39358U 13057A   26121.25153203  .00000997  00000+0  99783-4 0  9991
2 39358  74.9707  85.5675 0016377 339.3422  20.7102 14.92486156679347
SL-4 R/B                
1 39679U 14021B   26121.25366148  .00017649  00000+0  37183-3 0  9990
2 39679  51.6057  80.5006 0092388 295.2792  63.8641 15.40844665664372
ALOS-2                  
1 39766U 14029A   26121.26960075  .00000915  00000+0  12937-3 0  9993
2 39766  97.9211 219.1043 0001655  85.5107 274.6294 14.79478070644640
YAOGAN-29               
1 41038U 15069A   26121.28684664  .00000072  00000+0  15493-4 0  9997
2 41038  98.0065 149.8391 0002029 131.6274 228.5113 14.83044361563671
ASTRO-H (HITOMI)        
1 41337U 16012A   26121.11401649  .00003247  00000+0  18755-3 0  9990
2 41337  31.0008  18.1529 0009402 140.1499 219.9831 15.10308218560161
HXMT (HUIYAN)           
1 42758U 17034A   26121.29300683  .00005667  00000+0  28118-3 0  9990
2 42758  43.0136  84.0704 0032258 209.8961 150.0045 15.18042572490534
SAOCOM 1A               
1 43641U 18076A   26121.28372433  .00000754  00000+0  10132-3 0  9999
2 43641  97.8893 308.7124 0001578  89.9497 270.1897 14.82159606409151
H-2A R/B                
1 43682U 18084L   26121.15001720  .00025834  00000+0  57330-3 0  9994
2 43682  98.8648 349.8229 0023707 197.8916 162.1495 15.43424766413867
SAOCOM 1B               
1 46265U 20059A   26121.17997338 -.00000236  00000+0 -23058-4 0  9992
2 46265  97.8886 307.7036 0001575  79.8592 280.2799 14.82149925306523
CSS (TIANHE)            
1 48274U 21035A   26121.27338075  .00037592  00000+0  40209-3 0  9996
2 48274  41.4673 247.5940 0005901 308.9892  51.0422 15.63112988285831
COSMOS 2550             
1 48865U 21056A   26121.33545943 -.00000113  00000+0  23915-5 0  9993
2 48865  67.1428 241.6291 0008318 269.5381  90.4820 15.33827782271537
CZ-2C R/B               
1 52794U 22058K   26121.16489771  .00058260  00000+0  73092-3 0  9993
2 52794  50.1881  47.5414 0037886  65.9894 294.5037 15.58246094218308
CZ-2C R/B               
1 54039U 22132E   26121.27314544  .00057222  00000+0  54116-3 0  9990
2 54039  97.2924 126.3837 0013230 246.5724 113.4146 15.66707261198598
GSLV R/B                
1 54149U 22138AN  26121.13002286  .00002654  00000+0  22721-3 0  9996
2 54149  87.3803 148.7883 0019715 327.0355  32.9646 14.97050975191773
XRISM                   
1 57800U 23137A   26121.19581716  .00006705  00000+0  37448-3 0  9992
2 57800  31.0021 303.8962 0007661 210.2947 149.7249 15.12063213145746
ACS3                    
1 59588U 24077B   26120.72670794  .00001278  00000+0  10136-2 0  9998
2 59588  97.1802  50.1488 0056751 343.4699  16.4614 13.91829409101439
HTV-X1                  
1 66174U 25241A   26120.54126812  .00013323  00000+0  14860-3 0  9991
2 66174  51.6348 181.3189 0007265   9.1352 350.9773 15.63134601 28895
SZ-21 MODULE            
1 66515U 25246C   26120.70473288  .00041293  00000+0  29967-3 0  9996
2 66515  41.4740 242.1774 0003465 357.2858   2.7966 15.72596176 26252
